[{"OBJECT_NAME":"STARLINK-31282","OBJECT_ID":"2024-056M","EPOCH":"2026-03-09T12:01:58.762848","MEAN_MOTION":15.27572077,"ECCENTRICITY":0.0001307,"INCLINATION":43.0042,"RA_OF_ASC_NODE":231.9332,"ARG_OF_PERICENTER":267.9054,"MEAN_ANOMALY":92.1648,"EPHEMERIS_TYPE":0,"CLASSIFICATION_TYPE":"U","NORAD_CAT_ID":59307,"ELEMENT_SET_NO":999,"REV_AT_EPOCH":11112,"BSTAR":3.4777849e-5,"MEAN_MOTION_DOT":6.95e-6,"MEAN_MOTION_DDOT":0},{"OBJECT_NAME":"OBJECT V","OBJECT_ID":"2025-155V","EPOCH":"2026-03-09T20:35:20.067360","MEAN_MOTION":15.27583301,"ECCENTRICITY":0.00080353,"INCLINATION":97.4485,"RA_OF_ASC_NODE":37.249,"ARG_OF_PERICENTER":152.8264,"MEAN_ANOMALY":207.3397,"EPHEMERIS_TYPE":0,"CLASSIFICATION_TYPE":"U","NORAD_CAT_ID":64895,"ELEMENT_SET_NO":999,"REV_AT_EPOCH":6557,"BSTAR":0.00051002361,"MEAN_MOTION_DOT":0.00013705,"MEAN_MOTION_DDOT":0}]
